STARLINK-1790
1 46691U 20073X   26061.16668981  .00040503  00000+0  32330-3 0  9993
2 46691  53.0430 235.8630 0006602 139.2489  22.8663 15.70723009  5938
